GLOBALSTAR M001 [-]     
1 25162U 98008A   24018.20783471 -.00000127  00000+0 -22986-3 0  9999
2 25162  52.0053  34.9763 0001601 237.3274 200.6145 12.38173931179903
GLOBALSTAR M004 [-]     
1 25163U 98008B   24017.78132326 -.00000062  00000+0  23132-3 0  9990
2 25163  51.9968 189.5258 0002472 202.7267 260.7546 12.63348670196417
GLOBALSTAR M002 [-]     
1 25164U 98008C   24018.16285698 -.00000067  00000+0  18458-3 0  9995
2 25164  52.0017  94.0355 0000933 243.2030 116.8694 11.61497225124178
GLOBALSTAR M003 [-]     
1 25165U 98008D   24017.71634869  .00000043  00000+0  14162-2 0  9994
2 25165  51.9798 159.0004 0007363 339.0081 127.0448 12.11968977170591
GLOBALSTAR M014 [-]     
1 25306U 98023A   24018.16823017 -.00000066  00000+0  20989-3 0  9994
2 25306  51.9861  28.0935 0000970 133.8833 304.0142 11.65463347130996
GLOBALSTAR M006 [-]     
1 25307U 98023B   24017.42491024 -.00000095  00000+0 -38949-3 0  9990
2 25307  51.9950  63.1323 0003611 252.8589 206.7740 11.58156889156950
GLOBALSTAR M015 [-]     
1 25308U 98023C   24017.59044992  .00000002  00000+0  17100-2 0  9998
2 25308  51.9813 137.5173 0011926 230.8286 220.9961 11.48858470134702
GLOBALSTAR M008 [-]     
1 25309U 98023D   24017.83738324 -.00000071  00000+0  19770-3 0  9998
2 25309  51.9955 255.0413 0002571 144.1442 295.0796 12.36034994173998
